{"type": "FeatureCollection", "features": [ {"type": "Feature", "properties": {"norad_id": 30252, "name": "FENGYUN 1C DEB", "group": "fengyun-1c-debris", "lat": -79.13633337383045, "lon": 138.75148455101828, "alt_km": 837.9308602904521, "timestamp": "2025-12-23T07:45:09.679354+00:00", "meta": {"OBJECT_NAME": "FENGYUN 1C DEB", "OBJECT_ID": "1999-025XM", "EPOCH": "2025-12-22T12:30:00.640800", "MEAN_MOTION": 14.0972574, "ECCENTRICITY": 0.00662626, "INCLINATION": 98.7428, "RA_OF_ASC_NODE": 11.2787, "ARG_OF_PERICENTER": 213.7335, "MEAN_ANOMALY": 300.3427, "EPHEMERIS_TYPE": 0, "CLASSIFICATION_TYPE": "U", "NORAD_CAT_ID": 30252, "ELEMENT_SET_NO": 999, "REV_AT_EPOCH": 97103, "BSTAR": 0.00042445694, "MEAN_MOTION_DOT": 7.17e-06, "MEAN_MOTION_DDOT": 0}, "tle": {"line1": "1 30252U 99025XM  25356.52084075  .00000717  00000+0  42446-3 0  9996", "line2": "2 30252  98.7428  11.2787 0066262 213.7335 300.3427 14.09725740971032"}}, "geometry": {"type": "Point", "coordinates": [138.75148455101828, -79.13633337383045]}}, {"type": "Feature", "properties": {"norad_id": 30253, "name": "FENGYUN 1C DEB", "group": "fengyun-1c-debris", "lat": 69.15466503524323, "lon": -71.64707868517816, "alt_km": 995.0600338894292, "timestamp": "2025-12-23T07:45:09.679365+00:00", "meta": {"OBJECT_NAME": "FENGYUN 1C DEB", "OBJECT_ID": "1999-025XN", "EPOCH": "2025-12-22T17:50:59.976672", "MEAN_MOTION": 13.73220075, "ECCENTRICITY": 0.02209256, "INCLINATION": 98.7515, "RA_OF_ASC_NODE": 83.9606, "ARG_OF_PERICENTER": 14.3813, "MEAN_ANOMALY": 109.8764, "EPHEMERIS_TYPE": 0, "CLASSIFICATION_TYPE": "U", "NORAD_CAT_ID": 30253, "ELEMENT_SET_NO": 999, "REV_AT_EPOCH": 94151, "BSTAR": 0.0019048309, "MEAN_MOTION_DOT": 2.065e-05, "MEAN_MOTION_DDOT": 0}, "tle": {"line1": "1 30253U 99025XN  25356.74374973  .00002065  00000+0  19048-2 0  9999", "line2": "2 30253  98.7515  83.9606 0220925  14.3813 109.8764 13.73220075941517"}}, "geometry": {"type": "Point", "coordinates": [-71.64707868517816, 69.15466503524323]}}, {"type": "Feature", "properties": {"norad_id": 30257, "name": "FENGYUN 1C DEB", "group": "fengyun-1c-debris", "lat": -78.64311761815675, "lon": 125.52779834384887, "alt_km": 909.7098933754605, "timestamp": "2025-12-23T07:45:09.679375+00:00", "meta": {"OBJECT_NAME": "FENGYUN 1C DEB", "OBJECT_ID": "1999-025XS", "EPOCH": "2025-12-22T06:44:02.618304", "MEAN_MOTION": 14.09728891, "ECCENTRICITY": 0.00596758, "INCLINATION": 98.7496, "RA_OF_ASC_NODE": 354.578, "ARG_OF_PERICENTER": 72.735, "MEAN_ANOMALY": 302.6657, "EPHEMERIS_TYPE": 0, "CLASSIFICATION_TYPE": "U", "NORAD_CAT_ID": 30257, "ELEMENT_SET_NO": 999, "REV_AT_EPOCH": 97352, "BSTAR": 0.00016931725, "MEAN_MOTION_DOT": 2.6e-06, "MEAN_MOTION_DDOT": 0}, "tle": {"line1": "1 30257U 99025XS  25356.28058586  .00000260  00000+0  16932-3 0  9996", "line2": "2 30257  98.7496 354.5780 0059675  72.7350 302.6657 14.09728891973524"}}, "geometry": {"type": "Point", "coordinates": [125.52779834384887, -78.64311761815675]}}, {"type": "Feature", "properties": {"norad_id": 30259, "name": "FENGYUN 1C DEB", "group": "fengyun-1c-debris", "lat": 78.31965127328009, "lon": 77.74082688947105, "alt_km": 839.7705288417028, "timestamp": "2025-12-23T07:45:09.679385+00:00", "meta": {"OBJECT_NAME": "FENGYUN 1C DEB", "OBJECT_ID": "1999-025XU", "EPOCH": "2025-12-22T13:20:38.776704", "MEAN_MOTION": 14.51551925, "ECCENTRICITY": 0.02420076, "INCLINATION": 98.7607, "RA_OF_ASC_NODE": 208.7021, "ARG_OF_PERICENTER": 238.4197, "MEAN_ANOMALY": 175.35, "EPHEMERIS_TYPE": 0, "CLASSIFICATION_TYPE": "U", "NORAD_CAT_ID": 30259, "ELEMENT_SET_NO": 999, "REV_AT_EPOCH": 99617, "BSTAR": 0.0004273547, "MEAN_MOTION_DOT": 2.441e-05, "MEAN_MOTION_DDOT": 0}, "tle": {"line1": "1 30259U 99025XU  25356.55600436  .00002441  00000+0  42735-3 0  9998", "line2": "2 30259  98.7607 208.7021 0242007 238.4197 175.3500 14.51551925996178"}}, "geometry": {"type": "Point", "coordinates": [77.74082688947105, 78.31965127328009]}}, {"type": "Feature", "properties": {"norad_id": 30263, "name": "FENGYUN 1C DEB", "group": "fengyun-1c-debris", "lat": 57.46860220012534, "lon": -53.434983790510685, "alt_km": 973.9603202002245, "timestamp": "2025-12-23T07:45:09.679396+00:00", "meta": {"OBJECT_NAME": "FENGYUN 1C DEB", "OBJECT_ID": "1999-025XY", "EPOCH": "2025-12-20T07:28:46.628256", "MEAN_MOTION": 14.01494898, "ECCENTRICITY": 0.01444826, "INCLINATION": 98.9351, "RA_OF_ASC_NODE": 109.3367, "ARG_OF_PERICENTER": 339.2977, "MEAN_ANOMALY": 76.0019, "EPHEMERIS_TYPE": 0, "CLASSIFICATION_TYPE": "U", "NORAD_CAT_ID": 30263, "ELEMENT_SET_NO": 999, "REV_AT_EPOCH": 96131, "BSTAR": 0.00070985244, "MEAN_MOTION_DOT": 1.131e-05, "MEAN_MOTION_DDOT": 0}, "tle": {"line1": "1 30263U 99025XY  25354.31165079  .00001131  00000+0  70985-3 0  9997", "line2": "2 30263  98.9351 109.3367 0144482 339.2977  76.0019 14.01494898961314"}}, "geometry": {"type": "Point", "coordinates": [-53.434983790510685, 57.46860220012534]}}, {"type": "Feature", "properties": {"norad_id": 30264, "name": "FENGYUN 1C DEB", "group": "fengyun-1c-debris", "lat": -3.046381974970335, "lon": -128.10278871444027, "alt_km": 849.1371976780338, "timestamp": "2025-12-23T07:45:09.679406+00:00", "meta": {"OBJECT_NAME": "FENGYUN 1C DEB", "OBJECT_ID": "1999-025XZ", "EPOCH": "2025-12-22T10:28:44.483808", "MEAN_MOTION": 14.07676846, "ECCENTRICITY": 0.01079727, "INCLINATION": 98.9696, "RA_OF_ASC_NODE": 51.4986, "ARG_OF_PERICENTER": 260.1244, "MEAN_ANOMALY": 114.5431, "EPHEMERIS_TYPE": 0, "CLASSIFICATION_TYPE": "U", "NORAD_CAT_ID": 30264, "ELEMENT_SET_NO": 999, "REV_AT_EPOCH": 96694, "BSTAR": 0.001164435, "MEAN_MOTION_DOT": 2.031e-05, "MEAN_MOTION_DDOT": 0}, "tle": {"line1": "1 30264U 99025XZ  25356.43662597  .00002031  00000+0  11644-2 0  9996", "line2": "2 30264  98.9696  51.4986 0107972 260.1244 114.5431 14.07676846966944"}}, "geometry": {"type": "Point", "coordinates": [-128.10278871444027, -3.046381974970335]}}, {"type": "Feature", "properties": {"norad_id": 30265, "name": "FENGYUN 1C DEB", "group": "fengyun-1c-debris", "lat": -13.006884791560555, "lon": 108.91811631681973, "alt_km": 681.8021910939833, "timestamp": "2025-12-23T07:45:09.679416+00:00", "meta": {"OBJECT_NAME": "FENGYUN 1C DEB", "OBJECT_ID": "1999-025YA", "EPOCH": "2025-12-22T19:20:09.601152", "MEAN_MOTION": 14.58802517, "ECCENTRICITY": 0.00280958, "INCLINATION": 98.6644, "RA_OF_ASC_NODE": 106.3602, "ARG_OF_PERICENTER": 340.8312, "MEAN_ANOMALY": 170.6399, "EPHEMERIS_TYPE": 0, "CLASSIFICATION_TYPE": "U", "NORAD_CAT_ID": 30265, "ELEMENT_SET_NO": 999, "REV_AT_EPOCH": 98548, "BSTAR": 0.0022337442, "MEAN_MOTION_DOT": 0.00010462, "MEAN_MOTION_DDOT": 0}, "tle": {"line1": "1 30265U 99025YA  25356.80566668  .00010462  00000+0  22337-2 0  9998", "line2": "2 30265  98.6644 106.3602 0028095 340.8312 170.6399 14.58802517985488"}}, "geometry": {"type": "Point", "coordinates": [108.91811631681973, -13.006884791560555]}}, {"type": "Feature", "properties": {"norad_id": 30266, "name": "FENGYUN 1C DEB", "group": "fengyun-1c-debris", "lat": 37.242796135033636, "lon": -111.37049411177817, "alt_km": 855.2456383659073, "timestamp": "2025-12-23T07:45:09.679426+00:00", "meta": {"OBJECT_NAME": "FENGYUN 1C DEB", "OBJECT_ID": "1999-025YB", "EPOCH": "2025-12-22T16:31:33.750048", "MEAN_MOTION": 14.15126475, "ECCENTRICITY": 0.00819119, "INCLINATION": 99.0416, "RA_OF_ASC_NODE": 61.034, "ARG_OF_PERICENTER": 37.6496, "MEAN_ANOMALY": 113.2147, "EPHEMERIS_TYPE": 0, "CLASSIFICATION_TYPE": "U", "NORAD_CAT_ID": 30266, "ELEMENT_SET_NO": 999, "REV_AT_EPOCH": 96930, "BSTAR": 0.0011087023, "MEAN_MOTION_DOT": 2.177e-05, "MEAN_MOTION_DDOT": 0}, "tle": {"line1": "1 30266U 99025YB  25356.68858507  .00002177  00000+0  11087-2 0  9995", "line2": "2 30266  99.0416  61.0340 0081911  37.6496 113.2147 14.15126475969309"}}, "geometry": {"type": "Point", "coordinates": [-111.37049411177817, 37.242796135033636]}}, {"type": "Feature", "properties": {"norad_id": 30267, "name": "FENGYUN 1C DEB", "group": "fengyun-1c-debris", "lat": 19.637271668112767, "lon": 65.36279232613745, "alt_km": 854.8859617355347, "timestamp": "2025-12-23T07:45:09.679436+00:00", "meta": {"OBJECT_NAME": "FENGYUN 1C DEB", "OBJECT_ID": "1999-025YC", "EPOCH": "2025-12-22T11:25:03.559296", "MEAN_MOTION": 14.23668533, "ECCENTRICITY": 0.00597864, "INCLINATION": 98.8493, "RA_OF_ASC_NODE": 67.6972, "ARG_OF_PERICENTER": 215.4726, "MEAN_ANOMALY": 144.247, "EPHEMERIS_TYPE": 0, "CLASSIFICATION_TYPE": "U", "NORAD_CAT_ID": 30267, "ELEMENT_SET_NO": 999, "REV_AT_EPOCH": 97433, "BSTAR": 0.0015099031, "MEAN_MOTION_DOT": 3.465e-05, "MEAN_MOTION_DDOT": 0}, "tle": {"line1": "1 30267U 99025YC  25356.47573564  .00003465  00000+0  15099-2 0  9998", "line2": "2 30267  98.8493  67.6972 0059786 215.4726 144.2470 14.23668533974339"}}, "geometry": {"type": "Point", "coordinates": [65.36279232613745, 19.637271668112767]}}, {"type": "Feature", "properties": {"norad_id": 30270, "name": "FENGYUN 1C DEB", "group": "fengyun-1c-debris", "lat": -75.46301682956621, "lon": 154.5188691616313, "alt_km": 865.7151768866497, "timestamp": "2025-12-23T07:45:09.679447+00:00", "meta": {"OBJECT_NAME": "FENGYUN 1C DEB", "OBJECT_ID": "1999-025YF", "EPOCH": "2025-12-22T20:53:46.371840", "MEAN_MOTION": 14.11275564, "ECCENTRICITY": 0.00078358, "INCLINATION": 98.7017, "RA_OF_ASC_NODE": 10.2807, "ARG_OF_PERICENTER": 132.6017, "MEAN_ANOMALY": 348.6773, "EPHEMERIS_TYPE": 0, "CLASSIFICATION_TYPE": "U", "NORAD_CAT_ID": 30270, "ELEMENT_SET_NO": 999, "REV_AT_EPOCH": 97504, "BSTAR": 0.00011236394, "MEAN_MOTION_DOT": 1.6e-06, "MEAN_MOTION_DDOT": 0}, "tle": {"line1": "1 30270U 99025YF  25356.87067560  .00000160  00000+0  11236-3 0  9999", "line2": "2 30270  98.7017  10.2807 0007835 132.6017 348.6773 14.11275564975046"}}, "geometry": {"type": "Point", "coordinates": [154.5188691616313, -75.46301682956621]}}]}